FENGYUN 3D              
1 43010U 17072A   26181.88993058 -.00000189  00000+0 -67532-4 0  9999
2 43010  99.0129 156.5600 0002189  40.0950 320.0387 14.19741590446931
NOAA 20 (JPSS-1)        
1 43013U 17073A   26181.81665361  .00000044  00000+0  41891-4 0  9997
2 43013  98.7773 121.1582 0000802 133.5608 226.5634 14.19514125446409
GOES 17                 
1 43226U 18022A   26181.64007786 -.00000173  00000+0  00000+0 0  9996
2 43226   0.9696  85.4969 0000744  33.8276 300.3108  1.00272282 30556
SENTINEL-3B             
1 43437U 18039A   26181.65464719  .00000111  00000+0  63993-4 0  9998
2 43437  98.6244 248.9934 0000815 113.9618 246.1648 14.26738462426048
FENGYUN 2H              
1 43491U 18050A   26181.81605778 -.00000121  00000+0  00000+0 0  9998
2 43491   3.0654  78.9207 0001756 121.3276  91.7215  1.00269660 29573
METOP-C                 
1 43689U 18087A   26181.79357417  .00000111  00000+0  70593-4 0  9995
2 43689  98.6639 241.1481 0002120 112.2669 247.8733 14.21515709396766
GEO-KOMPSAT-2A          
1 43823U 18100A   26181.68321897 -.00000333  00000+0  00000+0 0  9990
2 43823   0.0424 119.2731 0002364 332.3933 201.3042  1.00270789 27765
METEOR-M2 2             
1 44387U 19038A   26181.80216449 -.00000002  00000+0  18921-4 0  9996
2 44387  98.9144 169.2885 0001482  28.0813 332.0445 14.24369226363236
ARKTIKA-M 1             
1 47719U 21016A   26180.95192977 -.00000281  00000+0  00000+0 0  9994
2 47719  63.2520  55.7907 7292817 269.9910  14.5481  2.00617895 39040
FENGYUN 3E              
1 49008U 21062A   26181.87227712 -.00000405  00000+0 -17030-3 0  9990
2 49008  98.7488 185.1273 0002736  63.9865 296.1593 14.19903699258527
GOES 18                 
1 51850U 22021A   26181.77324397  .00000107  00000+0  00000+0 0  9992
2 51850   0.0105  94.5169 0000539  39.6641 286.0207  1.00271074  6729
NOAA 21 (JPSS-2)        
1 54234U 22150A   26181.77869829  .00000054  00000+0  46484-4 0  9990
2 54234  98.7060 120.3396 0002375 130.2796 229.8588 14.19538872188477
METEOSAT-12 (MTG-I1)    
1 54743U 22170C   26181.80035397  .00000004  00000+0  00000+0 0  9990
2 54743   0.7531  25.0636 0003665  73.5335 108.1208  1.00276084 13113
TIANMU-1 03             
1 55973U 23039A   26181.82362072  .00015528  00000+0  30221-3 0  9995
2 55973  97.5230 356.3300 0003763  65.1336 295.0305 15.47663380182941
TIANMU-1 04             
1 55974U 23039B   26181.80777809  .00015502  00000+0  29535-3 0  9990
2 55974  97.5170 355.4679 0004148  58.9723 301.1933 15.48276145182959
TIANMU-1 05             
1 55975U 23039C   26181.80504928  .00015007  00000+0  29290-3 0  9999
2 55975  97.5215 355.9203 0003787  81.7197 278.4482 15.47588993182923
TIANMU-1 06             
1 55976U 23039D   26181.87665126  .00015715  00000+0  30040-3 0  9996
2 55976  97.5222 356.6444 0004006  76.7437 283.4260 15.48178798182966
FENGYUN 3G              
1 56232U 23055A   26181.81219414  .00024751  00000+0  39165-3 0  9996
2 56232  49.9927 275.7890 0007280 353.2650   6.8218 15.53220324182125
METEOR-M2 3             
1 57166U 23091A   26181.86987686  .00000022  00000+0  28278-4 0  9990
2 57166  98.6076 236.5679 0004953 122.4149 237.7509 14.24047927156460
TIANMU-1 07             
1 57399U 23101A   26181.83558697  .00006395  00000+0  22297-3 0  9996
2 57399  97.2584 232.1910 0004337  93.7629 266.4108 15.29963143163731
TIANMU-1 08             
1 57400U 23101B   26181.86759433  .00006524  00000+0  22733-3 0  9992
2 57400  97.2572 231.9909 0005538  82.4801 277.7069 15.29968203163730
TIANMU-1 09             
1 57401U 23101C   26181.85071475  .00006595  00000+0  22955-3 0  9999
2 57401  97.2531 231.3832 0004889  96.5760 263.6038 15.30003876163731
TIANMU-1 10             
1 57402U 23101D   26181.88401231  .00007027  00000+0  24457-3 0  9990
2 57402  97.2610 232.4801 0006411  91.3282 268.8693 15.29976927163731
FENGYUN 3F              
1 57490U 23111A   26181.85586997  .00000067  00000+0  52165-4 0  9993
2 57490  98.6832 251.6097 0001505  83.6362 276.4986 14.19941347150801
ARKTIKA-M 2             
1 58584U 23198A   26180.72239164  .00000148  00000+0  00000+0 0  9995
2 58584  63.2199 152.9641 6905877 267.3845  18.7575  2.00610643 18573
TIANMU-1 11             
1 58645U 23205A   26181.87979701  .00005660  00000+0  21535-3 0  9991
2 58645  97.3438 203.2223 0007375 325.8888  34.1877 15.27133060139610
TIANMU-1 12             
1 58646U 23205B   26181.85066918  .00005776  00000+0  22046-3 0  9993
2 58646  97.3427 202.9462 0005415 304.4167  55.6559 15.27030976139590
TIANMU-1 13             
1 58647U 23205C   26181.88396751  .00005828  00000+0  22293-3 0  9990
2 58647  97.3455 203.2541 0004952 278.9487  81.1192 15.26953652139590
TIANMU-1 14             
1 58648U 23205D   26181.86877311  .00005832  00000+0  22276-3 0  9991
2 58648  97.3391 202.4101 0005776 285.8606  74.1996 15.26998173139599
TIANMU-1 19             
1 58660U 23208A   26181.81035354  .00008271  00000+0  27209-3 0  9997
2 58660  97.4522 298.1815 0003533 261.0929  98.9912 15.31774759139418
TIANMU-1 20             
1 58661U 23208B   26181.83757491  .00008276  00000+0  26227-3 0  9997
2 58661  97.4463 298.8585 0005574 273.5594  86.5011 15.32965078139518
