OBJECT_NAME,OBJECT_ID,EPOCH,MEAN_MOTION,ECCENTRICITY,INCLINATION,RA_OF_ASC_NODE,ARG_OF_PERICENTER,MEAN_ANOMALY,EPHEMERIS_TYPE,CLASSIFICATION_TYPE,NORAD_CAT_ID,ELEMENT_SET_NO,REV_AT_EPOCH,BSTAR,MEAN_MOTION_DOT,MEAN_MOTION_DDOT
FENGYUN 3D,2017-072A,2026-06-30T21:21:30.002112,14.19741590,.0002189,99.0129,156.5600,40.0950,320.0387,0,U,43010,999,44693,-.67532E-4,-.189E-5,0
NOAA 20 (JPSS-1),2017-073A,2026-06-30T19:35:58.871904,14.19514125,.0000802,98.7773,121.1582,133.5608,226.5634,0,U,43013,999,44640,.41891E-4,.44E-6,0
GOES 17,2018-022A,2026-06-30T15:21:42.727104,1.00272282,.0000744,0.9696,85.4969,33.8276,300.3108,0,U,43226,999,3055,0,-.173E-5,0
SENTINEL-3B,2018-039A,2026-06-30T15:42:41.517216,14.26738462,.0000815,98.6244,248.9934,113.9618,246.1648,0,U,43437,999,42604,.63993E-4,.111E-5,0
FENGYUN 2H,2018-050A,2026-06-30T19:35:07.392192,1.00269660,.0001756,3.0654,78.9207,121.3276,91.7215,0,U,43491,999,2957,0,-.121E-5,0
METOP-C,2018-087A,2026-06-30T19:02:44.808288,14.21515709,.000212,98.6639,241.1481,112.2669,247.8733,0,U,43689,999,39676,.70593E-4,.111E-5,0
GEO-KOMPSAT-2A,2018-100A,2026-06-30T16:23:50.119008,1.00270789,.0002364,0.0424,119.2731,332.3933,201.3042,0,U,43823,999,2776,0,-.333E-5,0
METEOR-M2 2,2019-038A,2026-06-30T19:15:07.011936,14.24369226,.0001482,98.9144,169.2885,28.0813,332.0445,0,U,44387,999,36323,.18921E-4,-.2E-7,0
ARKTIKA-M 1,2021-016A,2026-06-29T22:50:46.732128,2.00617895,.72928178,63.2520,55.7907,269.9910,14.5481,0,U,47719,999,3904,0,-.281E-5,0
FENGYUN 3E,2021-062A,2026-06-30T20:56:04.743168,14.19903699,.0002736,98.7488,185.1273,63.9865,296.1593,0,U,49008,999,25852,-.1703E-3,-.405E-5,0
GOES 18,2022-021A,2026-06-30T18:33:28.279008,1.00271074,.0000539,0.0105,94.5169,39.6641,286.0207,0,U,51850,999,672,0,.107E-5,0
NOAA 21 (JPSS-2),2022-150A,2026-06-30T18:41:19.532256,14.19538872,.0002375,98.7060,120.3396,130.2796,229.8588,0,U,54234,999,18847,.46484E-4,.54E-6,0
METEOSAT-12 (MTG-I1),2022-170C,2026-06-30T19:12:30.583008,1.00276084,.0003665,0.7531,25.0636,73.5335,108.1208,0,U,54743,999,1311,0,.4E-7,0
TIANMU-1 03,2023-039A,2026-06-30T19:46:00.830208,15.47663380,.0003763,97.5230,356.3300,65.1336,295.0305,0,U,55973,999,18294,.30221E-3,.15528E-3,0
TIANMU-1 04,2023-039B,2026-06-30T19:23:12.026976,15.48276145,.0004148,97.5170,355.4679,58.9723,301.1933,0,U,55974,999,18295,.29535E-3,.15502E-3,0
TIANMU-1 05,2023-039C,2026-06-30T19:19:16.257792,15.47588993,.0003787,97.5215,355.9203,81.7197,278.4482,0,U,55975,999,18292,.2929E-3,.15007E-3,0
TIANMU-1 06,2023-039D,2026-06-30T21:02:22.668864,15.48178798,.0004006,97.5222,356.6444,76.7437,283.4260,0,U,55976,999,18296,.3004E-3,.15715E-3,0
FENGYUN 3G,2023-055A,2026-06-30T19:29:33.573696,15.53220324,.000728,49.9927,275.7890,353.2650,6.8218,0,U,56232,999,18212,.39165E-3,.24751E-3,0
METEOR-M2 3,2023-091A,2026-06-30T20:52:37.360704,14.24047927,.0004953,98.6076,236.5679,122.4149,237.7509,0,U,57166,999,15646,.28278E-4,.22E-6,0
TIANMU-1 07,2023-101A,2026-06-30T20:03:14.714208,15.29963143,.0004337,97.2584,232.1910,93.7629,266.4108,0,U,57399,999,16373,.22297E-3,.6395E-4,0
TIANMU-1 08,2023-101B,2026-06-30T20:49:20.150112,15.29968203,.0005538,97.2572,231.9909,82.4801,277.7069,0,U,57400,999,16373,.22733E-3,.6524E-4,0
TIANMU-1 09,2023-101C,2026-06-30T20:25:01.754400,15.30003876,.0004889,97.2531,231.3832,96.5760,263.6038,0,U,57401,999,16373,.22955E-3,.6595E-4,0
TIANMU-1 10,2023-101D,2026-06-30T21:12:58.663584,15.29976927,.0006411,97.2610,232.4801,91.3282,268.8693,0,U,57402,999,16373,.24457E-3,.7027E-4,0
FENGYUN 3F,2023-111A,2026-06-30T20:32:27.165408,14.19941347,.0001505,98.6832,251.6097,83.6362,276.4986,0,U,57490,999,15080,.52165E-4,.67E-6,0
ARKTIKA-M 2,2023-198A,2026-06-29T17:20:14.637696,2.00610643,.69058771,63.2199,152.9641,267.3845,18.7575,0,U,58584,999,1857,0,.148E-5,0
TIANMU-1 11,2023-205A,2026-06-30T21:06:54.461664,15.27133060,.0007375,97.3438,203.2223,325.8888,34.1877,0,U,58645,999,13961,.21535E-3,.566E-4,0
TIANMU-1 12,2023-205B,2026-06-30T20:24:57.817152,15.27030976,.0005415,97.3427,202.9462,304.4167,55.6559,0,U,58646,999,13959,.22046E-3,.5776E-4,0
TIANMU-1 13,2023-205C,2026-06-30T21:12:54.792864,15.26953652,.0004952,97.3455,203.2541,278.9487,81.1192,0,U,58647,999,13959,.22293E-3,.5828E-4,0
TIANMU-1 14,2023-205D,2026-06-30T20:51:01.996704,15.26998173,.0005776,97.3391,202.4101,285.8606,74.1996,0,U,58648,999,13959,.22276E-3,.5832E-4,0
TIANMU-1 19,2023-208A,2026-06-30T19:26:54.545856,15.31774759,.0003533,97.4522,298.1815,261.0929,98.9912,0,U,58660,999,13941,.27209E-3,.8271E-4,0
TIANMU-1 20,2023-208B,2026-06-30T20:06:06.472224,15.32965078,.0005574,97.4463,298.8585,273.5594,86.5011,0,U,58661,999,13951,.26227E-3,.8276E-4,0
